0 ARIANE 42P+ DEB
1 34185U 92072R   13281.40935043  .00000177  00000-0  19569-2 0  3782
2 34185 008.0155 346.1718 7097051 330.9848 003.7773 02.36946519 69249
0 ARIANE 42P+ DEB
1 34185U 92072R   13289.42706699  .00000025  00000-0  57421-3 0  3798
2 34185 008.0030 342.9214 7097872 337.3632 002.8653 02.36946511 69439
